NOAA 1                  
1 04793U 70106A   26060.10388039 -.00000028  00000+0  93909-4 0  9997
2 04793 101.3531  99.4958 0031646 197.6816 186.6413 12.54049026527142
NOAA 2 (ITOS-D)         
1 06235U 72082A   26060.52747542 -.00000018  00000+0  17852-3 0  9990
2 06235 102.0168  77.8876 0004033  20.7383 101.4885 12.53211534441465
NOAA 3                  
1 06920U 73086A   26060.03086513 -.00000022  00000+0  18253-3 0  9997
2 06920 102.2910  72.9251 0006206 325.4223  47.6848 12.40391479368492
NOAA 4                  
1 07529U 74089A   26060.50898373 -.00000024  00000+0  14151-3 0  9999
2 07529 102.0076  72.1527 0009186  44.2416  86.7050 12.53201483346031
NOAA 5                  
1 09057U 76077A   26060.52732183 -.00000029  00000+0  12828-3 0  9998
2 09057 102.2946  45.9918 0009745 175.5949 296.7047 12.37828139241150
TIROS N                 
1 11060U 78096A   26060.49312462  .00000197  00000+0  11339-3 0  9999
2 11060  98.4643  86.3764 0010268 188.3823 171.7184 14.19334161663476
NOAA 6                  
1 11416U 79057A   26060.04748435  .00000348  00000+0  13660-3 0  9993
2 11416  98.5763  90.2531 0009241 213.1478 146.9129 14.35425791435448
NOAA 7                  
1 12553U 81059A   26060.19242991  .00000040  00000+0  41138-4 0  9994
2 12553  98.8078 128.3148 0010914 212.5708 147.4794 14.17771190309449
NOAA 8                  
1 13923U 83022A   26060.50648611  .00000191  00000+0  91718-4 0  9998
2 13923  98.7375  73.2770 0014218 209.9508 150.0861 14.29763057235683
NOAA 9                  
1 15427U 84123A   26060.53677729  .00000151  00000+0  98478-4 0  9993
2 15427  99.1104  84.6260 0013713 296.5176 180.2852 14.17035724128171
NOAA 10                 
1 16969U 86073A   26060.50240727  .00000206  00000+0  98600-4 0  9990
2 16969  98.6992  53.9120 0011270 315.2537 157.6313 14.29140142 54039
NOAA 11                 
1 19531U 88089A   26060.44743732  .00000079  00000+0  61846-4 0  9994
2 19531  98.6084   9.7663 0009996 245.3189 114.6945 14.15818654932234
NOAA 12                 
1 21263U 91032A   26060.47801441  .00000156  00000+0  82393-4 0  9992
2 21263  98.6142  50.6077 0013393 348.0174  12.0686 14.26714291809600
NOAA 13                 
1 22739U 93050A   26060.43932666  .00000131  00000+0  92036-4 0  9991
2 22739  98.6921   8.4173 0010570  78.2029 282.0329 14.13633164678159
NOAA 14                 
1 23455U 94089A   26060.47754479  .00000084  00000+0  65229-4 0  9999
2 23455  98.5006  35.0833 0010211  38.7088 321.4816 14.14652966607978
NOAA 15                 
1 25338U 98030A   26060.49563384  .00000186  00000+0  93793-4 0  9996
2 25338  98.5170  83.9908 0009250 306.9811  53.0523 14.27108738445938
NOAA 16                 
1 26536U 00055A   26060.45992864  .00000135  00000+0  92729-4 0  9994
2 26536  98.4709  80.3914 0009306 248.2877 111.7307 14.13895346608505
NOAA 17                 
1 27453U 02032A   26060.53762027  .00000247  00000+0  12224-3 0  9990
2 27453  98.8525  25.0818 0010795 307.5768  52.4430 14.26183417231643
NOAA 18                 
1 28654U 05018A   26060.40263902  .00000047  00000+0  47881-4 0  9991
2 28654  98.8170 141.6255 0015353  97.4042 262.8876 14.13708770 71080
NOAA 19                 
1 33591U 09005A   26060.45315469  .00000042  00000+0  46486-4 0  9993
2 33591  98.9624 131.2098 0013227 339.1534  20.9097 14.13454803879260
SUOMI NPP               
1 37849U 11061A   26060.49650794  .00000108  00000+0  72136-4 0  9999
2 37849  98.7860   2.1647 0000492 307.8163  52.2968 14.19540848743161
NOAA 20 (JPSS-1)        
1 43013U 17073A   26060.44065059  .00000089  00000+0  63003-4 0  9998
2 43013  98.7682   0.9103 0000833 147.1557 212.9671 14.19533575429185
NOAA 21 (JPSS-2)        
1 54234U 22150A   26060.47544922  .00000081  00000+0  59399-4 0  9996
2 54234  98.7545   0.8359 0002452 121.4344 238.7072 14.19549554171268
